OBJECT_NAME,OBJECT_ID,EPOCH,MEAN_MOTION,ECCENTRICITY,INCLINATION,RA_OF_ASC_NODE,ARG_OF_PERICENTER,MEAN_ANOMALY,EPHEMERIS_TYPE,CLASSIFICATION_TYPE,NORAD_CAT_ID,ELEMENT_SET_NO,REV_AT_EPOCH,BSTAR,MEAN_MOTION_DOT,MEAN_MOTION_DDOT
YAMAL 401,2014-082A,2026-06-26T02:42:57.812832,1.00270329,.0000876,0.0083,315.9701,157.5653,291.3942,0,U,40345,999,4200,0,-.217E-5,0
ASTRA 2G,2014-089A,2026-06-26T22:57:09.916128,1.00272936,.00047892,0.0500,335.4588,104.5730,207.5133,0,U,40364,999,4206,0,.161E-5,0
FENGYUN 2G,2014-090A,2026-06-26T16:26:53.974752,1.00269056,.00035792,5.6634,72.7057,150.4754,37.9966,0,U,40367,999,4209,0,-.296E-5,0
MUOS-3,2015-002A,2026-06-26T08:25:38.620416,1.00270929,.0052536,4.5378,43.5588,177.8097,164.0664,0,U,40374,999,4167,0,-.122E-5,0
INMARSAT 5-F2,2015-005A,2026-06-26T10:34:51.682080,1.00270500,.0000366,0.0187,8.4587,50.6858,319.1254,0,U,40384,999,4108,0,-.274E-5,0
ABS-3A,2015-010A,2026-06-26T09:07:00.641856,1.00262619,.0002493,0.0429,53.2461,340.4855,14.5366,0,U,40424,999,4146,0,0,0
EUTELSAT 115 WEST B,2015-010B,2026-06-26T23:18:23.725152,1.00272376,.00004791,0.0422,181.5363,77.6944,250.5625,0,U,40425,999,4148,0,-.13E-6,0
EXPRESS-AM7,2015-012A,2026-06-26T23:00:32.092992,1.00268939,.0003242,0.0262,10.3613,91.5009,198.3516,0,U,40505,999,4110,0,0,0
BEIDOU-3S IGSO-1S,2015-019A,2026-06-26T16:41:18.216672,1.00249401,.00390489,49.1760,295.3462,191.6970,128.6573,0,U,40549,999,4116,0,-.17E-5,0
THOR 7,2015-022A,2026-06-26T17:40:58.784736,1.00271723,.00026797,0.0196,100.5528,350.5114,88.3727,0,U,40613,999,4091,0,.3E-7,0
TURKMENALEM52E/MONACOSAT,2015-023A,2026-06-26T23:04:01.758144,1.00269869,.00030471,0.0231,69.4278,16.5189,227.1655,0,U,40617,999,4094,0,.115E-5,0
DIRECTV 15,2015-026A,2026-06-26T15:29:07.680192,1.00270653,.00005561,0.0170,58.3843,346.9897,358.7982,0,U,40663,999,4055,0,-.91E-6,0
SKY MEXICO-1,2015-026B,2026-06-26T22:26:39.202080,1.00272091,.0002621,0.0045,43.7556,70.4329,58.7291,0,U,40664,999,4055,0,-.223E-5,0
METEOSAT-11 (MSG-4),2015-034A,2026-06-26T19:26:29.490720,1.00266080,.00022432,3.2246,71.0499,347.6617,157.2677,0,U,40732,999,731,0,.7E-6,0
STAR ONE C4,2015-034B,2026-06-26T13:55:48.415008,1.00271134,.00021714,0.0253,330.7464,98.1267,344.7909,0,U,40733,999,4010,0,-.254E-5,0
WGS F7 (USA 263),2015-036A,2026-06-26T16:48:23.225184,1.00273892,.00008169,0.0425,55.1408,127.1798,159.5612,0,U,40746,999,3996,0,0,0
INTELSAT 34 (IS-34),2015-039A,2026-06-26T10:34:44.193792,1.00271982,.000058,0.0077,356.9250,32.1514,348.6723,0,U,40874,999,3972,0,-.274E-5,0
EUTELSAT 8 WEST B,2015-039B,2026-06-26T22:46:52.334976,1.00271664,.00037487,0.0632,7.5612,84.8093,156.4114,0,U,40875,999,3975,0,-.54E-6,0
GSAT-6,2015-041A,2026-06-26T21:29:58.226784,1.00270687,.0003117,1.9436,82.4753,6.1620,231.3982,0,U,40880,999,3969,0,-.15E-5,0
INMARSAT 5-F3,2015-042A,2026-06-26T16:49:53.082048,1.00278544,.00009236,0.0189,18.7464,84.6584,243.4874,0,U,40882,999,3966,0,.63E-6,0
MUOS-4,2015-044A,2026-06-26T18:02:26.123136,1.00272343,.00578269,4.3475,42.3037,2.9580,215.2001,0,U,40887,999,3965,0,-.85E-6,0
TJS-1,2015-046A,2026-06-26T21:50:41.241120,1.00270739,.00059175,0.3483,84.9179,5.2653,307.5455,0,U,40892,999,3966,0,-.145E-5,0
EXPRESS-AM8,2015-048A,2026-06-26T15:54:29.007072,1.00271665,.00004108,0.0168,328.7711,85.7051,84.9254,0,U,40895,999,3944,0,-.1E-5,0
BEIDOU-3S IGSO-2S,2015-053A,2026-06-26T16:25:46.582752,1.00257789,.00655228,49.2053,258.6677,192.9538,164.2588,0,U,40938,999,3944,0,-.116E-5,0
SKY MUSTER 1 (NBN1A),2015-054A,2026-06-26T23:29:06.853056,1.00273843,.00020244,0.0183,342.6778,109.9041,315.0433,0,U,40940,999,3935,0,-.267E-5,0
ARSAT 2,2015-054B,2026-06-26T22:26:01.762368,1.00271595,.00022001,0.0115,334.8013,110.2097,85.5472,0,U,40941,999,3940,0,-.213E-5,0
MORELOS 3,2015-056A,2026-06-26T22:16:55.136352,1.00272383,.00005929,3.1948,15.3199,2.1284,118.7274,0,U,40946,999,3938,0,-.34E-6,0
APSTAR-9,2015-059A,2026-06-26T16:39:01.622592,1.00277445,.00024596,0.0324,306.0171,226.9675,133.5810,0,U,40982,999,3921,0,-.253E-5,0
TURKSAT 4B,2015-060A,2026-06-26T23:03:24.317568,1.00272351,.00024974,0.0122,49.2043,42.2261,219.4406,0,U,40984,999,3919,0,.127E-5,0
ZHONGXING-2C,2015-063A,2026-06-26T21:35:57.651648,1.00274413,.00075738,0.2993,89.4043,95.5841,157.4512,0,U,41021,999,3907,0,-.313E-5,0
GSAT-15,2015-065A,2026-06-26T21:33:05.427936,1.00271072,.00046007,0.0489,263.6700,172.9547,255.1844,0,U,41028,999,3889,0,-.246E-5,0
BADR-7 (ARABSAT-6B),2015-065B,2026-06-26T22:56:24.988128,1.00273208,.00039458,0.0337,220.0522,335.1203,89.9793,0,U,41029,999,3886,0,.156E-5,0
