YAMAL 401               
1 40345U 14082A   26177.11316913 -.00000217  00000+0  00000+0 0  9998
2 40345   0.0083 315.9701 0000876 157.5653 291.3942  1.00270329 42008
ASTRA 2G                
1 40364U 14089A   26177.95636477  .00000161  00000+0  00000+0 0  9995
2 40364   0.0500 335.4588 0004789 104.5730 207.5133  1.00272936 42061
FENGYUN 2G              
1 40367U 14090A   26177.68534693 -.00000296  00000+0  00000+0 0  9997
2 40367   5.6634  72.7057 0003579 150.4754  37.9966  1.00269056 42098
MUOS-3                  
1 40374U 15002A   26177.35114144 -.00000122  00000+0  00000+0 0  9996
2 40374   4.5378  43.5588 0052536 177.8097 164.0664  1.00270929 41675
INMARSAT 5-F2           
1 40384U 15005A   26177.44087595 -.00000274  00000+0  00000+0 0  9997
2 40384   0.0187   8.4587 0000366  50.6858 319.1254  1.00270500 41089
ABS-3A                  
1 40424U 15010A   26177.37986854  .00000000  00000+0  00000+0 0  9992
2 40424   0.0429  53.2461 0002493 340.4855  14.5366  1.00262619 41466
EUTELSAT 115 WEST B     
1 40425U 15010B   26177.97110793 -.00000013  00000+0  00000+0 0  9995
2 40425   0.0422 181.5363 0000479  77.6944 250.5625  1.00272376 41489
EXPRESS-AM7             
1 40505U 15012A   26177.95870478  .00000000  00000+0  00000+0 0  9992
2 40505   0.0262  10.3613 0003242  91.5009 198.3516  1.00268939 41102
BEIDOU-3S IGSO-1S       
1 40549U 15019A   26177.69534973 -.00000170  00000+0  00000+0 0  9994
2 40549  49.1760 295.3462 0039048 191.6970 128.6573  1.00249401 41164
THOR 7                  
1 40613U 15022A   26177.73679149  .00000003  00000+0  00000+0 0  9994
2 40613   0.0196 100.5528 0002679 350.5114  88.3727  1.00271723 40918
TURKMENALEM52E/MONACOSAT
1 40617U 15023A   26177.96113146  .00000115  00000+0  00000+0 0  9998
2 40617   0.0231  69.4278 0003047  16.5189 227.1655  1.00269869 40942
DIRECTV 15              
1 40663U 15026A   26177.64522778 -.00000091  00000+0  00000+0 0  9996
2 40663   0.0170  58.3843 0000556 346.9897 358.7982  1.00270653 40552
SKY MEXICO-1            
1 40664U 15026B   26177.93517595 -.00000223  00000+0  00000+0 0  9997
2 40664   0.0045  43.7556 0002621  70.4329  58.7291  1.00272091 40555
METEOSAT-11 (MSG-4)     
1 40732U 15034A   26177.81006355  .00000070  00000+0  00000+0 0  9995
2 40732   3.2246  71.0499 0002243 347.6617 157.2677  1.00266080  7319
STAR ONE C4             
1 40733U 15034B   26177.58042147 -.00000254  00000+0  00000+0 0  9994
2 40733   0.0253 330.7464 0002171  98.1267 344.7909  1.00271134 40100
WGS F7 (USA 263)        
1 40746U 15036A   26177.70026881  .00000000  00000+0  00000+0 0  9999
2 40746   0.0425  55.1408 0000816 127.1798 159.5612  1.00273892 39965
INTELSAT 34 (IS-34)     
1 40874U 15039A   26177.44078928 -.00000274  00000+0  00000+0 0  9998
2 40874   0.0077 356.9250 0000580  32.1514 348.6723  1.00271982 39722
EUTELSAT 8 WEST B       
1 40875U 15039B   26177.94921684 -.00000054  00000+0  00000+0 0  9996
2 40875   0.0632   7.5612 0003748  84.8093 156.4114  1.00271664 39755
GSAT-6                  
1 40880U 15041A   26177.89581281 -.00000150  00000+0  00000+0 0  9991
2 40880   1.9436  82.4753 0003117   6.1620 231.3982  1.00270687 39697
INMARSAT 5-F3           
1 40882U 15042A   26177.70130882  .00000063  00000+0  00000+0 0  9993
2 40882   0.0189  18.7464 0000923  84.6584 243.4874  1.00278544 39668
MUOS-4                  
1 40887U 15044A   26177.75169124 -.00000085  00000+0  00000+0 0  9991
2 40887   4.3475  42.3037 0057826   2.9580 215.2001  1.00272343 39659
TJS-1                   
1 40892U 15046A   26177.91019955 -.00000145  00000+0  00000+0 0  9990
2 40892   0.3483  84.9179 0005917   5.2653 307.5455  1.00270739 39666
EXPRESS-AM8             
1 40895U 15048A   26177.66283573 -.00000100  00000+0  00000+0 0  9997
2 40895   0.0168 328.7711 0000410  85.7051  84.9254  1.00271665 39443
BEIDOU-3S IGSO-2S       
1 40938U 15053A   26177.68456693 -.00000116  00000+0  00000+0 0  9995
2 40938  49.2053 258.6677 0065522 192.9538 164.2588  1.00257789 39440
SKY MUSTER 1 (NBN1A)    
1 40940U 15054A   26177.97855154 -.00000267  00000+0  00000+0 0  9993
2 40940   0.0183 342.6778 0002024 109.9041 315.0433  1.00273843 39357
ARSAT 2                 
1 40941U 15054B   26177.93474262 -.00000213  00000+0  00000+0 0  9998
2 40941   0.0115 334.8013 0002200 110.2097  85.5472  1.00271595 39400
MORELOS 3               
1 40946U 15056A   26177.92841593 -.00000034  00000+0  00000+0 0  9990
2 40946   3.1948  15.3199 0000592   2.1284 118.7274  1.00272383 39380
APSTAR-9                
1 40982U 15059A   26177.69376878 -.00000253  00000+0  00000+0 0  9999
2 40982   0.0324 306.0171 0002459 226.9675 133.5810  1.00277445 39215
TURKSAT 4B              
1 40984U 15060A   26177.96069812  .00000127  00000+0  00000+0 0  9999
2 40984   0.0122  49.2043 0002497  42.2261 219.4406  1.00272351 39192
ZHONGXING-2C            
1 41021U 15063A   26177.89997282 -.00000313  00000+0  00000+0 0  9996
2 41021   0.2993  89.4043 0007573  95.5841 157.4512  1.00274413 39071
GSAT-15                 
1 41028U 15065A   26177.89797949 -.00000246  00000+0  00000+0 0  9998
2 41028   0.0489 263.6700 0004600 172.9547 255.1844  1.00271072 38894
BADR-7 (ARABSAT-6B)     
1 41029U 15065B   26177.95584477  .00000156  00000+0  00000+0 0  9995
2 41029   0.0337 220.0522 0003945 335.1203  89.9793  1.00273208 38865
